start=new Date('2022-10-24T00:00:00.000Z').valueOf();
sats=[{"BSTAR":"0.00009074600000","LAUNCH_DATE":"2022-04-29","PERIAPSIS":"537.944","SEMIMAJOR_AXIS":"6917.864","SITE":"AFETR","MEAN_ELEMENT_THEORY":"SGP4","CENTER_NAME":"EARTH","ELEMENT_SET_NO":"999","PERIOD":"95.437","REF_FRAME":"TEME","MEAN_MOTION_DOT":"0.00001156","TLE_LINE1":"1 52332U 22045B   22296.86456933  .00001156  00000-0  90746-4 0  9996","MEAN_ANOMALY":"325.9758","DECAY_DATE":null,"INCLINATION":"53.2184","EPOCH":"2022-10-23T20:44:58.790112","MEAN_MOTION_DDOT":"0.0000000000000","COUNTRY_CODE":"US","FILE":"3630578","RCS_SIZE":"LARGE","REV_AT_EPOCH":"2952","OBJECT_NAME":"STARLINK-3831","OBJECT_ID":"2022-045B","MEAN_MOTION":"15.08845287","EPHEMERIS_TYPE":"0","ECCENTRICITY":"0.00025810","TIME_SYSTEM":"UTC","GP_ID":"215971929","ARG_OF_PERICENTER":"34.1400","RA_OF_ASC_NODE":"343.4800","NORAD_CAT_ID":"52332","CLASSIFICATION_TYPE":"U","TLE_LINE2":"2 52332  53.2184 343.4800 0002581  34.1400 325.9758 15.08845287 29525","OBJECT_TYPE":"PAYLOAD","APOAPSIS":"541.515"},{"APOAPSIS":"541.307","TLE_LINE2":"2 52333  53.2175 345.2825 0002312  29.2694 330.8427 15.08852505 29456","CLASSIFICATION_TYPE":"U","OBJECT_TYPE":"PAYLOAD","NORAD_CAT_ID":"52333","RA_OF_ASC_NODE":"345.2825","ARG_OF_PERICENTER":"29.2694","GP_ID":"215965652","ECCENTRICITY":"0.00023120","TIME_SYSTEM":"UTC","EPHEMERIS_TYPE":"0","MEAN_MOTION":"15.08852505","OBJECT_ID":"2022-045C","OBJECT_NAME":"STARLINK-3847","REV_AT_EPOCH":"2945","RCS_SIZE":"LARGE","FILE":"3630365","COUNTRY_CODE":"US","MEAN_MOTION_DDOT":"0.0000000000000","EPOCH":"2022-10-23T11:07:21.425952","INCLINATION":"53.2175","DECAY_DATE":null,"MEAN_ANOMALY":"330.8427","MEAN_MOTION_DOT":"0.00001307","TLE_LINE1":"1 52333U 22045C   22296.46344243  .00001307  00000-0  10017-3 0  9993","REF_FRAME":"TEME","PERIOD":"95.437","ELEMENT_SET_NO":"999","CENTER_NAME":"EARTH","MEAN_ELEMENT_THEORY":"SGP4","SEMIMAJOR_AXIS":"6917.842","SITE":"AFETR","PERIAPSIS":"538.108","LAUNCH_DATE":"2022-04-29","BSTAR":"0.00010017000000"},{"PERIAPSIS":"537.905","LAUNCH_DATE":"2022-04-29","SITE":"AFETR","SEMIMAJOR_AXIS":"6917.843","BSTAR":"0.00019858000000","MEAN_ELEMENT_THEORY":"SGP4","CENTER_NAME":"EARTH","REF_FRAME":"TEME","MEAN_ANOMALY":"327.9550","DECAY_DATE":null,"TLE_LINE1":"1 52334U 22045D   22296.45241381  .00002875  00000-0  19858-3 0  9995","MEAN_MOTION_DOT":"0.00002875","PERIOD":"95.437","ELEMENT_SET_NO":"999","MEAN_MOTION_DDOT":"0.0000000000000","INCLINATION":"53.2187","EPOCH":"2022-10-23T10:51:28.553184","RCS_SIZE":"LARGE","REV_AT_EPOCH":"2945","FILE":"3630365","COUNTRY_CODE":"US","MEAN_MOTION":"15.08852152","OBJECT_ID":"2022-045D","EPHEMERIS_TYPE":"0","OBJECT_NAME":"STARLINK-3880","GP_ID":"215965403","TIME_SYSTEM":"UTC","ECCENTRICITY":"0.00026070","TLE_LINE2":"2 52334  53.2187 345.3466 0002607  32.1601 327.9550 15.08852152 29452","CLASSIFICATION_TYPE":"U","OBJECT_TYPE":"PAYLOAD","APOAPSIS":"541.512","NORAD_CAT_ID":"52334","ARG_OF_PERICENTER":"32.1601","RA_OF_ASC_NODE":"345.3466"},{"COUNTRY_CODE":"US","FILE":"3630604","REV_AT_EPOCH":"2948","RCS_SIZE":"LARGE","OBJECT_NAME":"STARLINK-3814","OBJECT_ID":"2022-045E","MEAN_MOTION":"15.08852604","EPHEMERIS_TYPE":"0","ECCENTRICITY":"0.00030290","TIME_SYSTEM":"UTC","GP_ID":"215997166","RA_OF_ASC_NODE":"344.7758","ARG_OF_PERICENTER":"27.6179","NORAD_CAT_ID":"52335","TLE_LINE2":"2 52335  53.2171 344.7758 0003029  27.6179 332.4973 15.08852604 29486","CLASSIFICATION_TYPE":"U","OBJECT_TYPE":"PAYLOAD","APOAPSIS":"541.802","BSTAR":"0.00020479000000","LAUNCH_DATE":"2022-04-29","PERIAPSIS":"537.611","SITE":"AFETR","SEMIMAJOR_AXIS":"6917.842","MEAN_ELEMENT_THEORY":"SGP4","CENTER_NAME":"EARTH","ELEMENT_SET_NO":"999","PERIOD":"95.437","REF_FRAME":"TEME","MEAN_MOTION_DOT":"0.00002973","TLE_LINE1":"1 52335U 22045E   22296.58121339  .00002973  00000-0  20479-3 0  9990","MEAN_ANOMALY":"332.4973","DECAY_DATE":null,"INCLINATION":"53.2171","EPOCH":"2022-10-23T13:56:56.836896","MEAN_MOTION_DDOT":"0.0000000000000"},{"OBJECT_ID":"2022-045F","MEAN_MOTION":"15.08855191","EPHEMERIS_TYPE":"0","OBJECT_NAME":"STARLINK-3823","FILE":"3630604","RCS_SIZE":"LARGE","REV_AT_EPOCH":"2952","COUNTRY_CODE":"US","TLE_LINE2":"2 52336  53.2171 343.6146 0002484  33.2410 326.8738 15.08855191 29526","CLASSIFICATION_TYPE":"U","OBJECT_TYPE":"PAYLOAD","APOAPSIS":"541.417","RA_OF_ASC_NODE":"343.6146","ARG_OF_PERICENTER":"33.2410","NORAD_CAT_ID":"52336","GP_ID":"215995914","ECCENTRICITY":"0.00024840","TIME_SYSTEM":"UTC","MEAN_ELEMENT_THEORY":"SGP4","CENTER_NAME":"EARTH","LAUNCH_DATE":"2022-04-29","PERIAPSIS":"537.981","SITE":"AFETR","SEMIMAJOR_AXIS":"6917.834","BSTAR":"0.00011321000000","MEAN_MOTION_DDOT":"0.0000000000000","INCLINATION":"53.2171","EPOCH":"2022-10-23T20:09:15.857568","REF_FRAME":"TEME","TLE_LINE1":"1 52336U 22045F   22296.83976687  .00001515  00000-0  11321-3 0  9990","MEAN_MOTION_DOT":"0.00001515","DECAY_DATE":null,"MEAN_ANOMALY":"326.8738","ELEMENT_SET_NO":"999","PERIOD":"95.437"},{"REF_FRAME":"TEME","MEAN_ANOMALY":"333.4814","DECAY_DATE":null,"MEAN_MOTION_DOT":"0.00002947","TLE_LINE1":"1 52337U 22045G   22296.45977803  .00002947  00000-0  20315-3 0  9993","PERIOD":"95.437","ELEMENT_SET_NO":"999","MEAN_MOTION_DDOT":"0.0000000000000","INCLINATION":"53.2173","EPOCH":"2022-10-23T11:02:04.821792","PERIAPSIS":"537.856","LAUNCH_DATE":"2022-04-29","SEMIMAJOR_AXIS":"6917.852","SITE":"AFETR","BSTAR":"0.00020315000000","MEAN_ELEMENT_THEORY":"SGP4","CENTER_NAME":"EARTH","GP_ID":"215965153","ECCENTRICITY":"0.00026900","TIME_SYSTEM":"UTC","CLASSIFICATION_TYPE":"U","TLE_LINE2":"2 52337  53.2173 345.3001 0002690  26.6316 333.4814 15.08849373 29465","OBJECT_TYPE":"PAYLOAD","APOAPSIS":"541.578","NORAD_CAT_ID":"52337","RA_OF_ASC_NODE":"345.3001","ARG_OF_PERICENTER":"26.6316","REV_AT_EPOCH":"2946","RCS_SIZE":"LARGE","FILE":"3630365","COUNTRY_CODE":"US","MEAN_MOTION":"15.08849373","OBJECT_ID":"2022-045G","EPHEMERIS_TYPE":"0","OBJECT_NAME":"STARLINK-3797"},{"EPOCH":"2022-10-24T03:50:18.458304","INCLINATION":"53.2191","MEAN_MOTION_DDOT":"0.0000000000000","ELEMENT_SET_NO":"999","PERIOD":"95.438","TLE_LINE1":"1 52338U 22045H   22297.15993586  .00000144  00000-0  27163-4 0  9994","MEAN_MOTION_DOT":"0.00000144","DECAY_DATE":null,"MEAN_ANOMALY":"330.7476","REF_FRAME":"TEME","CENTER_NAME":"EARTH","MEAN_ELEMENT_THEORY":"SGP4","BSTAR":"0.00002716300000","SITE":"AFETR","SEMIMAJOR_AXIS":"6917.897","LAUNCH_DATE":"2022-04-29","PERIAPSIS":"537.841","ARG_OF_PERICENTER":"29.3671","RA_OF_ASC_NODE":"342.1758","NORAD_CAT_ID":"52338","APOAPSIS":"541.684","CLASSIFICATION_TYPE":"U","TLE_LINE2":"2 52338  53.2191 342.1758 0002778  29.3671 330.7476 15.08834425 29579","OBJECT_TYPE":"PAYLOAD","TIME_SYSTEM":"UTC","ECCENTRICITY":"0.00027780","GP_ID":"215999391","OBJECT_NAME":"STARLINK-3815","EPHEMERIS_TYPE":"0","OBJECT_ID":"2022-045H","MEAN_MOTION":"15.08834425","COUNTRY_CODE":"US","FILE":"3630644","RCS_SIZE":"LARGE","REV_AT_EPOCH":"2957"},{"APOAPSIS":"541.554","CLASSIFICATION_TYPE":"U","TLE_LINE2":"2 52339  53.2174 343.6472 0002662  26.5772 333.5356 15.08850893 29523","OBJECT_TYPE":"PAYLOAD","NORAD_CAT_ID":"52339","ARG_OF_PERICENTER":"26.5772","RA_OF_ASC_NODE":"343.6472","GP_ID":"215996666","ECCENTRICITY":"0.00026620","TIME_SYSTEM":"UTC","EPHEMERIS_TYPE":"0","MEAN_MOTION":"15.08850893","OBJECT_ID":"2022-045J","OBJECT_NAME":"STARLINK-3792","RCS_SIZE":"LARGE","REV_AT_EPOCH":"2952","FILE":"3630604","COUNTRY_CODE":"US","MEAN_MOTION_DDOT":"0.0000000000000","EPOCH":"2022-10-23T19:58:39.530208","INCLINATION":"53.2174","DECAY_DATE":null,"MEAN_ANOMALY":"333.5356","TLE_LINE1":"1 52339U 22045J   22296.83240197  .00000836  00000-0  70625-4 0  9991","MEAN_MOTION_DOT":"0.00000836","REF_FRAME":"TEME","PERIOD":"95.437","ELEMENT_SET_NO":"999","CENTER_NAME":"EARTH","MEAN_ELEMENT_THEORY":"SGP4","SEMIMAJOR_AXIS":"6917.847","SITE":"AFETR","PERIAPSIS":"537.871","LAUNCH_DATE":"2022-04-29","BSTAR":"0.00007062500000"},{"EPOCH":"2022-10-23T14:19:28.178688","INCLINATION":"53.2182","MEAN_MOTION_DDOT":"0.0000000000000","ELEMENT_SET_NO":"999","PERIOD":"95.437","TLE_LINE1":"1 52340U 22045K   22296.59685392  .00001055  00000-0  84389-4 0  9992","MEAN_MOTION_DOT":"0.00001055","DECAY_DATE":null,"MEAN_ANOMALY":"332.4050","REF_FRAME":"TEME","CENTER_NAME":"EARTH","MEAN_ELEMENT_THEORY":"SGP4","BSTAR":"0.00008438900000","SITE":"AFETR","SEMIMAJOR_AXIS":"6917.864","LAUNCH_DATE":"2022-04-29","PERIAPSIS":"537.807","ARG_OF_PERICENTER":"27.7090","RA_OF_ASC_NODE":"334.6824","NORAD_CAT_ID":"52340","APOAPSIS":"541.652","CLASSIFICATION_TYPE":"U","TLE_LINE2":"2 52340  53.2182 334.6824 0002779  27.7090 332.4050 15.08845272 29614","OBJECT_TYPE":"PAYLOAD","ECCENTRICITY":"0.00027790","TIME_SYSTEM":"UTC","GP_ID":"215995414","OBJECT_NAME":"STARLINK-3818","EPHEMERIS_TYPE":"0","OBJECT_ID":"2022-045K","MEAN_MOTION":"15.08845272","COUNTRY_CODE":"US","FILE":"3630604","RCS_SIZE":"LARGE","REV_AT_EPOCH":"2961"},{"RA_OF_ASC_NODE":"343.6268","ARG_OF_PERICENTER":"23.5397","NORAD_CAT_ID":"52341","APOAPSIS":"541.882","TLE_LINE2":"2 52341  53.2169 343.6268 0003120  23.5397 336.5738 15.08847240 29522","OBJECT_TYPE":"PAYLOAD","CLASSIFICATION_TYPE":"U","TIME_SYSTEM":"UTC","ECCENTRICITY":"0.00031200","GP_ID":"215995664","OBJECT_NAME":"STARLINK-3843","EPHEMERIS_TYPE":"0","OBJECT_ID":"2022-045L","MEAN_MOTION":"15.08847240","COUNTRY_CODE":"US","FILE":"3630604","REV_AT_EPOCH":"2952","RCS_SIZE":"LARGE","EPOCH":"2022-10-23T20:03:57.751776","INCLINATION":"53.2169","MEAN_MOTION_DDOT":"0.0000000000000","ELEMENT_SET_NO":"999","PERIOD":"95.437","TLE_LINE1":"1 52341U 22045L   22296.83608509  .00000663  00000-0  59780-4 0  9996","MEAN_MOTION_DOT":"0.00000663","MEAN_ANOMALY":"336.5738","DECAY_DATE":null,"REF_FRAME":"TEME","CENTER_NAME":"EARTH","MEAN_ELEMENT_THEORY":"SGP4","BSTAR":"0.00005978000000","SITE":"AFETR","SEMIMAJOR_AXIS":"6917.858","LAUNCH_DATE":"2022-04-29","PERIAPSIS":"537.565"}];
